[{"OBJECT_NAME":"TRANSPORTER-12 OBJECT CN","OBJECT_ID":"2025-009CN","EPOCH":"2026-03-09T04:51:27.534528","MEAN_MOTION":15.62124498,"ECCENTRICITY":0.00034574,"INCLINATION":97.4063,"RA_OF_ASC_NODE":158.0668,"ARG_OF_PERICENTER":228.3172,"MEAN_ANOMALY":131.779,"EPHEMERIS_TYPE":0,"CLASSIFICATION_TYPE":"U","NORAD_CAT_ID":62693,"ELEMENT_SET_NO":999,"REV_AT_EPOCH":12172,"BSTAR":0.0018578414,"MEAN_MOTION_DOT":0.00165749,"MEAN_MOTION_DDOT":0},{"OBJECT_NAME":"DELTA 2 R\/B(1)","OBJECT_ID":"1990-008B","EPOCH":"2026-03-09T08:59:25.462464","MEAN_MOTION":15.55957726,"ECCENTRICITY":0.00854397,"INCLINATION":35.6039,"RA_OF_ASC_NODE":176.922,"ARG_OF_PERICENTER":255.8292,"MEAN_ANOMALY":103.2939,"EPHEMERIS_TYPE":0,"CLASSIFICATION_TYPE":"U","NORAD_CAT_ID":20453,"ELEMENT_SET_NO":999,"REV_AT_EPOCH":92608,"BSTAR":0.00075711194,"MEAN_MOTION_DOT":0.00064698,"MEAN_MOTION_DDOT":0}]
